{
    "links": {
        "self": "http://www.neowsapp.com/rest/v1/neo/3797704?api_key=iIulBulltgU6a56xZRHN4H3l9WmuAYTsLGpBGhQ2"
    },
    "id": "3797704",
    "neo_reference_id": "3797704",
    "name": "(2018 BS)",
    "designation": "2018 BS",
    "nasa_jpl_url": "http://ssd.jpl.nasa.gov/sbdb.cgi?sstr=3797704",
    "absolute_magnitude_h": 24.5,
    "estimated_diameter": {
        "kilometers": {
            "estimated_diameter_min": 0.0334622374,
            "estimated_diameter_max": 0.0748238376
        },
        "meters": {
            "estimated_diameter_min": 33.4622374455,
            "estimated_diameter_max": 74.8238376074
        },
        "miles": {
            "estimated_diameter_min": 0.0207924639,
            "estimated_diameter_max": 0.0464933628
        },
        "feet": {
            "estimated_diameter_min": 109.7842471007,
            "estimated_diameter_max": 245.4850393757
        }
    },
    "is_potentially_hazardous_asteroid": false,
    "close_approach_data": [
        {
            "close_approach_date": "2015-01-08",
            "close_approach_date_full": "2015-Jan-08 16:50",
            "epoch_date_close_approach": 1420735800000,
            "relative_velocity": {
                "kilometers_per_second": "4.3212990125",
                "kilometers_per_hour": "15556.676444821",
                "miles_per_hour": "9666.3137609501"
            },
            "miss_distance": {
                "astronomical": "0.2422794484",
                "lunar": "94.2467054276",
                "kilometers": "36244489.425414908",
                "miles": "22521281.4032574104"
            },
            "orbiting_body": "Earth"
        },
        {
            "close_approach_date": "2018-01-10",
            "close_approach_date_full": "2018-Jan-10 23:35",
            "epoch_date_close_approach": 1515627300000,
            "relative_velocity": {
                "kilometers_per_second": "3.1029586694",
                "kilometers_per_hour": "11170.6512099707",
                "miles_per_hour": "6941.0082476621"
            },
            "miss_distance": {
                "astronomical": "0.1677012741",
                "lunar": "65.2357956249",
                "kilometers": "25087753.401646167",
                "miles": "15588807.1011924246"
            },
            "orbiting_body": "Earth"
        }
    ],
    "orbital_data": {
        "orbit_id": "11",
        "orbit_determination_date": "2018-02-21 06:22:40",
        "first_observation_date": "2018-01-16",
        "last_observation_date": "2018-02-13",
        "data_arc_in_days": 28,
        "observations_used": 62,
        "orbit_uncertainty": "8",
        "minimum_orbit_intersection": ".16656",
        "jupiter_tisserand_invariant": "3.648",
        "epoch_osculation": "2458143.5",
        "eccentricity": ".4434742427906345",
        "semi_major_axis": "2.066539303066401",
        "inclination": ".282178494987693",
        "ascending_node_longitude": "126.2327345847811",
        "orbital_period": "1085.085427549384",
        "perihelion_distance": "1.150082350441943",
        "perihelion_argument": "343.6049952651535",
        "aphelion_distance": "2.982996255690858",
        "perihelion_time": "2458127.859022355211",
        "mean_anomaly": "5.189224561646575",
        "mean_motion": ".331771113001714",
        "equinox": "J2000",
        "orbit_class": {
            "orbit_class_type": "AMO",
            "orbit_class_description": "Near-Earth asteroid orbits similar to that of 1221 Amor",
            "orbit_class_range": "1.017 AU < q (perihelion) < 1.3 AU"
        }
    },
    "is_sentry_object": false
}